H1 CPF 01  gfz 2022 09 24 12  7672 terrasarx 
H2 0702601  6201 31698    2022 09 24 00 59 42 2022 09 29 00 00 42   120 1 1  0 0 0
H9
10 0 59848  62622.000000  0    2863255.736   1291429.543  -6137872.879
10 0 59848  62742.000000  0    3663206.423   1331181.055  -5687318.073
10 0 59848  62862.000000  0    4399961.454   1334385.125  -5137362.000
10 0 59848  62982.000000  0    5060029.702   1302187.136  -4497528.651
10 0 59848  63102.000000  0    5631249.397   1236570.791  -3778928.823
10 0 59848  63222.000000  0    6103020.480   1140301.507  -2994076.195
10 0 59848  63342.000000  0    6466512.382   1016851.952  -2156676.507
10 0 59848  63462.000000  0    6714842.466    870311.558  -1281390.918
10 0 59848  63582.000000  0    6843218.197    705281.020   -383577.377
10 0 59848  63702.000000  0    6849038.504    526754.796    520983.762
10 0 59848  63822.000000  0    6731952.790    339995.111   1416373.481
10 0 59848  63942.000000  0    6493875.899    150398.684   2286823.133
10 0 59848  64062.000000  0    6138955.516    -36638.626   3117001.846
10 0 59848  64182.000000  0    5673494.736   -215856.888   3892294.054
10 0 59848  64302.000000  0    5105831.522   -382261.791   4599061.189
10 0 59848  64422.000000  0    4446181.130   -531247.081   5224884.572
10 0 59848  64542.000000  0    3706440.591   -658707.050   5758783.265
10 0 59848  64662.000000  0    2899964.664   -761134.735   6191402.322
10 0 59848  64782.000000  0    2041317.494   -835705.513   6515171.397
10 0 59848  64902.000000  0    1146005.169   -880344.114   6724431.900
10 0 59848  65022.000000  0     230191.677   -893774.006   6815530.801
10 0 59848  65142.000000  0    -689594.032   -875547.719   6786879.061
10 0 59848  65262.000000  0   -1596755.303   -826058.481   6638976.692
10 0 59848  65382.000000  0   -2474925.685   -746532.015   6374404.174
10 0 59848  65502.000000  0   -3308262.733   -638999.091   5997780.827
10 0 59848  65622.000000  0   -4081735.417   -506249.116   5515690.627
10 0 59848  65742.000000  0   -4781400.229   -351766.153   4936573.806
10 0 59848  65862.000000  0   -5394659.680   -179647.839   4270584.324
10 0 59848  65982.000000  0   -5910497.641      5491.051   3529415.603
10 0 59848  66102.000000  0   -6319686.148    198628.669   2726097.587
10 0 59848  66222.000000  0   -6614961.044    394457.739   1874767.981
10 0 59848  66342.000000  0   -6791160.437    587515.533    990419.766
10 0 59848  66462.000000  0   -6845322.141    772318.546     88630.499
10 0 59848  66582.000000  0   -6776736.614    943499.230   -814721.022
10 0 59848  66702.000000  0   -6586953.258   1095940.795  -1703743.643
10 0 59848  66822.000000  0   -6279741.987   1224906.251  -2562820.341
10 0 59848  66942.000000  0   -5861012.702   1326160.166  -3376889.872
10 0 59848  67062.000000  0   -5338689.258   1396077.945  -4131715.767
10 0 59848  67182.000000  0   -4722546.322   1431740.535  -4814134.220
10 0 59848  67302.000000  0   -4024013.970   1431013.059  -5412278.946
10 0 59848  67422.000000  0   -3255955.247   1392605.588  -5915778.806
10 0 59848  67542.000000  0   -2432422.548   1316114.735  -6315927.363
10 0 59848  67662.000000  0   -1568396.811   1202046.101  -6605822.421
10 0 59848  67782.000000  0    -679514.305   1051817.753  -6780473.153
10 0 59848  67902.000000  0     218211.933    867743.766  -6836875.627
10 0 59848  68022.000000  0    1108672.547    652999.578  -6774059.203
10 0 59848  68142.000000  0    1975944.784    411568.218  -6593103.803
10 0 59848  68262.000000  0    2804571.362    148168.444  -6297122.676
10 0 59848  68382.000000  0    3579831.436   -131833.522  -5891214.793
10 0 59848  68502.000000  0    4287999.424   -422528.803  -5382384.827
10 0 59848  68622.000000  0    4916588.481   -717584.523  -4779434.180
10 0 59848  68742.000000  0    5454577.048  -1010375.549  -4092820.564
10 0 59848  68862.000000  0    5892610.682  -1294126.261  -3334486.234
10 0 59848  68982.000000  0    6223175.615  -1562059.960  -2517657.929
10 0 59848  69102.000000  0    6440739.926  -1807552.787  -1656620.555
10 0 59848  69222.000000  0    6541857.793  -2024288.249   -766467.698
10 0 59848  69342.000000  0    6525233.690  -2206408.178    137165.803
10 0 59848  69462.000000  0    6391744.544  -2348656.996   1038384.643
10 0 59848  69582.000000  0    6144417.844  -2446514.409   1921321.295
10 0 59848  69702.000000  0    5788365.735  -2496314.002   2770424.599
10 0 59848  69822.000000  0    5330677.403  -2495343.858   3570742.315
10 0 59848  69942.000000  0    4780271.082  -2441926.394   4308190.592
10 0 59848  70062.000000  0    4147713.140  -2335475.924   4969803.943
10 0 59848  70182.000000  0    3445008.094  -2176533.838   5543965.101
10 0 59848  70302.000000  0    2685360.971  -1966779.388   6020607.308
10 0 59848  70422.000000  0    1882922.198  -1709015.881   6391385.429
10 0 59848  70542.000000  0    1052519.195  -1407134.160   6649816.255
10 0 59848  70662.000000  0     209379.176  -1066053.231   6791386.053
10 0 59848  70782.000000  0    -631151.021   -691638.899   6813623.813
10 0 59848  70902.000000  0   -1453883.170   -290602.623   6716140.832
10 0 59848  71022.000000  0   -2244060.745    129618.445   6500637.067
10 0 59848  71142.000000  0   -2987622.617    560998.709   6170873.812
10 0 59848  71262.000000  0   -3671454.064    995076.189   5732612.877
10 0 59848  71382.000000  0   -4283621.679   1423116.964   5193522.407
10 0 59848  71502.000000  0   -4813587.697   1836289.619   4563048.771
10 0 59848  71622.000000  0   -5252398.866   2225846.974   3852255.775
10 0 59848  71742.000000  0   -5592845.514   2583310.422   3073633.297
10 0 59848  71862.000000  0   -5829587.560   2900653.054   2240878.986
10 0 59848  71982.000000  0   -5959245.530   3170477.702   1368655.803
10 0 59848  72102.000000  0   -5980453.069   3386185.718    472327.997
10 0 59848  72222.000000  0   -5893867.134   3542130.661   -432317.544
10 0 59848  72342.000000  0   -5702137.920   3633753.422  -1329357.762
10 0 59848  72462.000000  0   -5409839.472   3657696.286  -2203022.960
10 0 59848  72582.000000  0   -5023359.620   3611891.414  -3037982.891
10 0 59848  72702.000000  0   -4550755.004   3495622.348  -3819620.690
10 0 59848  72822.000000  0   -4001574.753   3309557.156  -4534289.617
10 0 59848  72942.000000  0   -3386659.571   3055753.620  -5169547.961
10 0 59848  73062.000000  0   -2717920.665   2737636.623  -5714367.868
10 0 59848  73182.000000  0   -2008105.435   2359949.869  -6159317.608
10 0 59848  73302.000000  0   -1270551.219   1928681.578  -6496714.491
10 0 59848  73422.000000  0    -518935.300   1450966.802  -6720745.006
10 0 59848  73542.000000  0     232974.939    934968.789  -6827554.754
10 0 59848  73662.000000  0     971567.630    389741.367  -6815307.555
10 0 59848  73782.000000  0    1683627.883   -174926.698  -6684215.202
10 0 59848  73902.000000  0    2356568.951   -748683.588  -6436532.759
10 0 59848  74022.000000  0    2978649.944  -1320799.087  -6076524.399
10 0 59848  74142.000000  0    3539178.522  -1880360.017  -5610397.298
10 0 59848  74262.000000  0    4028695.578  -2416474.175  -5046206.355
10 0 59848  74382.000000  0    4439139.503  -2918481.439  -4393725.848
10 0 59848  74502.000000  0    4763984.037  -3376165.631  -3664290.126
10 0 59848  74622.000000  0    4998349.359  -3779963.051  -2870606.206
10 0 59848  74742.000000  0    5139083.873  -4121164.533  -2026538.497
10 0 59848  74862.000000  0    5184812.456  -4392104.924  -1146868.616
10 0 59848  74982.000000  0    5135950.303  -4586336.139   -247034.991
10 0 59848  75102.000000  0    4994680.126  -4698778.977    657143.318
10 0 59848  75222.000000  0    4764893.185  -4725848.221   1549752.880
10 0 59848  75342.000000  0    4452095.148  -4665547.442   2415075.079
10 0 59848  75462.000000  0    4063279.974  -4517531.765   3237871.054
10 0 59848  75582.000000  0    3606775.038  -4283137.235   4003657.202
10 0 59848  75702.000000  0    3092060.368  -3965375.825   4698965.213
10 0 59848  75822.000000  0    2529567.946  -3568895.591   5311580.655
10 0 59848  75942.000000  0    1930466.594  -3099909.082   5830756.468
10 0 59848  76062.000000  0    1306435.936  -2566090.279   6247398.308
10 0 59848  76182.000000  0     669435.875  -1976443.904   6554217.570
10 0 59848  76302.000000  0      31475.766  -1341150.072   6745852.587
10 0 59848  76422.000000  0    -595611.711   -671386.310   6818956.863
10 0 59848  76542.000000  0   -1200388.898     20870.380   6772253.600
10 0 59848  76662.000000  0   -1772020.979    723057.332   6606556.530
10 0 59848  76782.000000  0   -2300469.502   1422253.479   6324756.601
10 0 59848  76902.000000  0   -2776669.131   2105416.125   5931774.746
10 0 59848  77022.000000  0   -3192684.608   2759624.115   5434481.702
10 0 59848  77142.000000  0   -3541846.385   3372323.991   4841584.444
10 0 59848  77262.000000  0   -3818861.940   3931573.772   4163479.510
10 0 59848  77382.000000  0   -4019900.019   4426280.642   3412075.325
10 0 59848  77502.000000  0   -4142645.881   4846427.128   2600585.003
10 0 59848  77622.000000  0   -4186325.524   5183279.375   1743292.054
10 0 59848  77742.000000  0   -4151698.214   5429572.369    855295.170
10 0 59848  77862.000000  0   -4041018.697   5579668.242    -47763.317
10 0 59848  77982.000000  0   -3857968.827   5629684.082   -949981.811
10 0 59848  78102.000000  0   -3607558.610   5577583.321  -1835490.242
10 0 59848  78222.000000  0   -3296000.250   5423228.225  -2688738.200
10 0 59848  78342.000000  0   -2930558.594   5168394.940  -3494773.708
10 0 59848  78462.000000  0   -2519384.027   4816748.770  -4239507.911
10 0 59848  78582.000000  0   -2071331.013   4373782.616  -4909959.515
10 0 59848  78702.000000  0   -1595767.646   3846721.844  -5494474.255
10 0 59848  78822.000000  0   -1102381.087   3244398.759  -5982919.612
10 0 59848  78942.000000  0    -600981.525   2577096.936  -6366851.276
10 0 59848  79062.000000  0    -101309.277   1856370.277  -6639647.264
99
